OBJECT_NAME,OBJECT_ID,EPOCH,MEAN_MOTION,ECCENTRICITY,INCLINATION,RA_OF_ASC_NODE,ARG_OF_PERICENTER,MEAN_ANOMALY,EPHEMERIS_TYPE,CLASSIFICATION_TYPE,NORAD_CAT_ID,ELEMENT_SET_NO,REV_AT_EPOCH,BSTAR,MEAN_MOTION_DOT,MEAN_MOTION_DDOT
LEMUR-2-ROUNDTRIPPER,2025-009DG,2026-07-22T16:28:03.397152,15.04310860,.00043136,97.7239,286.3251,49.3473,310.8127,0,U,62711,999,8296,.59140592E-3,.8183E-4,0
LEMUR-2-MYNAMEISJEFF,2025-009DH,2026-07-22T11:38:35.047104,15.04300993,.00043178,97.7284,286.5267,82.8993,277.2724,0,U,62712,999,8293,.61900455E-3,.8566E-4,0
LEMUR-2-LEIA-PHILIP,2025-052AN,2026-07-22T16:30:24.630048,14.97398184,.00050902,97.6785,95.0351,104.2609,255.9179,0,U,63246,999,7398,.70137992E-4,.758E-5,0
LEMUR-2-LIA-MARTIN,2025-052AQ,2026-07-22T06:40:46.651872,14.98060500,.00047501,97.6844,95.1638,72.6220,287.5521,0,U,63248,999,7393,.28273444E-3,.3286E-4,0
LEMUR-2-DELOITTE-1,2025-052BB,2026-07-22T22:16:16.806720,14.97828481,.00025168,97.6886,96.1336,54.3603,305.7853,0,U,63259,999,7404,.33409558E-3,.387E-4,0
LEMUR-2-EMERSONROSE,2025-052BD,2026-07-22T22:25:30.028512,14.99335715,.00022394,97.6884,96.7710,41.2716,318.8676,0,U,63261,999,7409,.30242934E-3,.3638E-4,0
LEMUR-2-MARACHE-FRAN,2025-052BE,2026-07-22T16:26:29.554656,15.00352389,.00061158,97.6810,96.8982,223.0553,137.0193,0,U,63262,999,7408,.31877406E-3,.3943E-4,0
LEMUR-2-THEFALCONER,2025-052BG,2026-07-22T06:59:41.582400,14.97587786,.00009671,97.6807,95.0892,205.9281,154.1893,0,U,63264,999,7394,.26833751E-3,.3077E-4,0
LEMUR-2-UNTITLED-SC,2025-061A,2026-07-22T22:05:25.511424,15.13683344,.00199339,97.5660,179.0313,137.6189,222.6586,0,U,63351,999,7299,.18451061E-3,.3268E-4,0
LEMUR-2-ESPERANZA,2025-061B,2026-07-22T21:29:07.683648,15.13788423,.00195564,97.5667,179.1083,137.0188,223.2575,0,U,63352,999,7299,.19479E-3,.3464E-4,0
LEMUR-2-KREMPEL-BRO2,2025-061C,2026-07-22T20:18:09.554688,15.14217263,.00206349,97.5713,179.6381,130.2151,230.0890,0,U,63353,999,7300,.19102531E-3,.3439E-4,0
LEMUR-2-THERMORAPTOR,2025-061D,2026-07-22T21:24:42.843456,15.14300300,.00203749,97.5719,179.7666,129.0530,231.2519,0,U,63354,999,7301,.21164138E-3,.3826E-4,0
LEMUR-2-NEUROSPICY,2025-061E,2026-07-22T22:15:05.609664,15.14419013,.00182162,97.5645,179.4000,131.8778,228.4012,0,U,63355,999,7302,.19179429E-3,.3469E-4,0
LEMUR-2-TILLINFINITY,2025-061F,2026-07-22T21:10:55.350912,15.15007927,.0019614,97.5632,179.6712,121.1672,239.1486,0,U,63356,999,7304,.25228389E-3,.4666E-4,0
LEMUR-2-KREMPEL-BRO1,2025-061G,2026-07-22T17:29:02.996160,15.14808413,.00202589,97.5632,179.4240,122.9596,237.3587,0,U,63357,999,7301,.1812237E-3,.3314E-4,0
LEMUR-2-LANGER2SPACE,2025-061H,2026-07-22T21:27:47.143296,15.14503456,.00180948,97.5638,179.3885,130.2936,229.9881,0,U,63358,999,7302,.20195941E-3,.3665E-4,0
LEMUR-2-BALTO,2025-052BH,2026-07-22T16:03:34.966080,15.00408258,.0004997,97.6917,96.8811,294.8468,65.2236,0,U,63395,999,7408,.33051741E-3,.4096E-4,0
LEMUR-2-KRISH,2025-135AK,2026-07-22T13:58:45.757056,14.96488813,.00012248,97.7759,318.2257,110.9382,249.1970,0,U,64561,999,5921,.39382845E-3,.4415E-4,0
LEMUR-2-HUBBLE-4,2025-135AP,2026-07-22T18:40:19.715808,14.93699280,.00032338,97.7723,317.2747,144.7931,215.3503,0,U,64565,999,5918,.1051806E-3,.1056E-4,0
LEMUR-2-SEJONG-2,2025-135BL,2026-07-22T22:27:01.438848,14.96962712,.00044239,97.7711,318.7221,183.5535,176.5656,0,U,64586,999,5929,.50769977E-3,.5781E-4,0
LEMUR-2-HUBBLE-5,2025-135BT,2026-07-22T18:49:12.322560,14.94226654,.00049439,97.7742,317.9580,205.3244,154.7735,0,U,64840,999,5922,.11870734E-3,.1215E-4,0
LEMUR-2-KARENDARRELL,2025-135BU,2026-07-22T19:09:49.865184,15.00577316,.0013015,97.7721,319.9655,81.7245,278.5453,0,U,64841,999,5935,.63228157E-3,.794E-4,0
LEMUR-2-LUCILLE-ROSE,2025-135BV,2026-07-22T18:31:43.909536,15.00558075,.00155817,97.7688,319.9724,166.4570,193.7074,0,U,65403,999,5397,.60148358E-3,.7551E-4,0
LEMUR-2-AFFIE-WAUWIE,2025-248C,2026-07-22T14:59:24.723744,15.28478624,.00092974,45.3913,282.7928,290.1345,69.8544,0,U,66295,999,4001,.78378098E-3,.21917E-3,0
OTTER SDM,2025-276N,2026-07-22T16:01:17.334336,15.20118190,.0004856,97.4195,276.5607,220.4782,139.6093,0,U,66678,999,3580,.29630356E-3,.6338E-4,0
LEMUR-2-STAS-GORBUK,2025-276W,2026-07-22T03:56:27.941856,15.19706170,.0004147,97.4227,276.1161,216.7749,143.3202,0,U,66686,999,3572,.22883191E-3,.482E-4,0
LEMUR-2-TEODOR,2025-276DG,2026-07-22T10:31:16.445856,15.21390266,.00020826,97.4133,276.6672,83.4185,276.7288,0,U,66768,999,3580,.24528829E-3,.5433E-4,0
LEMUR-2-LAILA,2025-276DQ,2026-07-22T05:02:08.863584,15.21615295,.00027925,97.4156,276.5851,84.3231,275.8324,0,U,66776,999,3577,.25904595E-3,.578E-4,0
LEMUR-2-CELIJO-SB-PK,2025-276DW,2026-07-22T15:42:44.776224,15.00342762,.00065757,97.5180,273.2602,46.3519,313.8250,0,U,66781,999,2794,.49504666E-3,.6159E-4,0
